[{"OBJECT_NAME":"STARLINK-31166","OBJECT_ID":"2024-012C","EPOCH":"2026-03-09T06:30:15.679584","MEAN_MOTION":15.27574391,"ECCENTRICITY":0.00014161,"INCLINATION":43.0012,"RA_OF_ASC_NODE":167.4663,"ARG_OF_PERICENTER":296.9428,"MEAN_ANOMALY":63.1279,"EPHEMERIS_TYPE":0,"CLASSIFICATION_TYPE":"U","NORAD_CAT_ID":58789,"ELEMENT_SET_NO":999,"REV_AT_EPOCH":12117,"BSTAR":1.39351e-7,"MEAN_MOTION_DOT":-2.58e-6,"MEAN_MOTION_DDOT":0},{"OBJECT_NAME":"DELTA 1 R\/B(1)","OBJECT_ID":"1977-108B","EPOCH":"2026-03-09T17:09:28.687104","MEAN_MOTION":12.7159019,"ECCENTRICITY":0.11493958,"INCLINATION":28.2947,"RA_OF_ASC_NODE":96.6821,"ARG_OF_PERICENTER":61.5787,"MEAN_ANOMALY":309.5754,"EPHEMERIS_TYPE":0,"CLASSIFICATION_TYPE":"U","NORAD_CAT_ID":10490,"ELEMENT_SET_NO":999,"REV_AT_EPOCH":20703,"BSTAR":0.00020105003,"MEAN_MOTION_DOT":8.74e-6,"MEAN_MOTION_DDOT":0}]
